[{"OBJECT_NAME":"STARLINK-32126","OBJECT_ID":"2024-132T","EPOCH":"2026-03-09T06:49:53.598432","MEAN_MOTION":15.30200248,"ECCENTRICITY":0.00015104,"INCLINATION":53.1613,"RA_OF_ASC_NODE":54.6428,"ARG_OF_PERICENTER":99.2811,"MEAN_ANOMALY":260.8361,"EPHEMERIS_TYPE":0,"CLASSIFICATION_TYPE":"U","NORAD_CAT_ID":60295,"ELEMENT_SET_NO":999,"REV_AT_EPOCH":9149,"BSTAR":-6.0342646e-5,"MEAN_MOTION_DOT":-2.146e-5,"MEAN_MOTION_DDOT":0},{"OBJECT_NAME":"FLOCK 4BE-27","OBJECT_ID":"2024-149AX","EPOCH":"2026-03-09T18:04:53.053248","MEAN_MOTION":15.32593322,"ECCENTRICITY":0.00027324,"INCLINATION":97.3862,"RA_OF_ASC_NODE":150.6783,"ARG_OF_PERICENTER":305.898,"MEAN_ANOMALY":54.2008,"EPHEMERIS_TYPE":0,"CLASSIFICATION_TYPE":"U","NORAD_CAT_ID":60513,"ELEMENT_SET_NO":999,"REV_AT_EPOCH":8690,"BSTAR":0.00036576028,"MEAN_MOTION_DOT":0.00011439,"MEAN_MOTION_DDOT":0}]
