STARLINK-32126          
1 60295U 24132T   26068.28464813 -.00002146  00000+0 -60343-4 0  9996
2 60295  53.1613  54.6428 0001510  99.2811 260.8361 15.30200248 91493
FLOCK 4BE-27            
1 60513U 24149AX  26068.75339182  .00011439  00000+0  36576-3 0  9992
2 60513  97.3862 150.6783 0002732 305.8980  54.2008 15.32593322 86906
